ACS3                    
1 59588U 24077B   24289.68289340  .00000775  00000+0  89515-3 0  9999
2 59588  97.4546 330.0447 0050273 180.2418 179.8718 13.70801963 23884
